facility_id,prison_name,ac_status,ac_status_details,address,city,state,zip
20000020,NH CORRECTIONAL FACILITY FOR WOMEN IN CONCORD,YES,FULL,42 PERIMETER RD,CONCORD,NH,03301
10004118,NH STATE PRISON FOR MEN,NO,NONE,281 N STATE ST,CONCORD,NH,03301
20000021,NORTHERN NH CORRECTIONAL FACILITY,NO,NONE,138 EAST MILAN RD.,BERLIN,NH,03570
10001573,AUGUSTA CORRECTIONAL CENTER,NO,NONE,1821 ESTALINE VALLEY ROAD,CRAIGSVILLE,VA,24430
10003331,BASKERVILLE CORRECTIONAL CENTER,NO,NONE,4150 HAYES MILL ROAD,BASKERVILLE,VA,23915
NA,BEAUMONT CORRECTIONAL CENTER,YES,FULL,3500 BEAUMONT RD.,BEAUMONT,VA,23014
10001588,BLAND CORRECTIONAL CENTER,NO,NONE,256 BLAND FARM ROAD,BLAND,VA,24315
10001597,BRUNSWICK CCAP,YES,FULL,1147 PLANTERS RD,LAWRENCEVILLE,VA,23868
10001578,BUCKINGHAM CORRECTIONAL CENTER,NO,NONE,1349 CORRECTIONAL CENTER ROAD,DILLWYN,VA,23936
10002377,CAROLINE CORRECTIONAL UNIT,NO,NONE,31285 CAMP ROAD,HANOVER,VA,23069
10001582,CENTRAL VIRGINIA CORRECTIONAL UNIT #13,YES,FULL,6900 COURTHOUSE ROAD,CHESTERFIELD,VA,23832
10003284,CHESTERFIELD WOMEN'S COMMUNITY CORRECTIONS ALTERNATIVE PROGRAM,YES,FULL,7000 COURTHOUSE RD,CHESTERFIELD,VA,23832
10001572,COFFEEWOOD CORRECTIONAL CENTER,YES,FULL,12352 COFFEEWOOD DRIVE,MITCHELLS,VA,22729
10003256,COLD SPRINGS COMMUNITY CORRECTIONS ALTERNATIVE PROGRAM,YES,FULL,192 SPITLER CIRCLE,GREENVILLE,VA,24440
10003255,COLD SPRINGS CORRECTIONAL UNIT #10,NO,NONE,475 GREEN ROCK LANE,CHATHAM,VA,24531
10003324,DEERFIELD CORRECTIONAL CENTER,YES,FULL,21360 DEERFIELD DRIVE,CAPRON,VA,23829
10001598,DEERFIELD MEN'S WORK CENTER,NO,NONE,15172 OLD BELFIELD ROAD,CAPRON,VA,23829
10001601,DEERFIELD MEN'S WORK CENTER 2,NO,NONE,15080 OLD BELFIELD ROAD,CAPRON,VA,23829
10000923,DILLWYN CORRECTIONAL CENTER,YES,FULL,1522 PRISON ROAD,DILLWYN,VA,23936
10003268,FLUVANNA CORRECTIONAL CENTER FOR WOMEN,YES,FULL,144 PRISON LANE,TROY,VA,22974
10003310,GREEN ROCK CORRECTIONAL CENTER,YES,FULL,475 GREEN ROCK LANE,CHATHAM,VA,24531
10003327,GREENSVILLE CORRECTIONAL CENTER,YES,PARTIAL,901 CORRECTIONS WAY,JARRATT,VA,23870
10003316,HALIFAX CORRECTIONAL UNIT,NO,NONE,1200 FARM ROAD,HALIFAX,VA,24558
10003262,HAYNESVILLE CORRECTIONAL CENTER,YES,FULL,421 BARNFIELD ROAD,HAYNESVILLE,VA,22472
10003263,HAYNESVILLE CORRECTIONAL UNIT #17 ,NO,NONE,363 CAMP SEVENTEEN ROAD,HAYNESVILLE,VA,22472
10000924,INDIAN CREEK CORRECTIONAL CENTER,YES,FULL,801 SANDERSON ROAD,CHESAPEAKE,VA,23328
10001583,KEEN MOUNTAIN CORRECTIONAL CENTER,YES,FULL,3402 KENNEL GAP ROAD,OAKWOOD,VA,24631
10001596,LAWRENCEVILLE CORRECTIONAL CENTER,NO,NONE,1607 PLANTERS ROAD,LAWRENCEVILLE,VA,23868
10001592,LUNENBURG CORRECTIONAL CENTER,YES,FULL,690 FALLS ROAD,VICTORIA,VA,23974
10003320,MARION CORRECTIONAL TREATMENT CENTER,NO,NONE,110 WRIGHT STREET,MARION,VA,24354
10001589,NOTTOWAY CORRECTIONAL CENTER,NO,NONE,2892 SCHUTT ROAD,BURKEVILLE,VA,23922
10001590,NOTTOWAY WORK CENTER,NO,NONE,2892 SCHUTT ROAD,BURKEVILLE,VA,23922
10003333,PATRICK HENRY CORRECTIONAL UNIT,NO,NONE,18155 A. L. PHILPOTT HIGHWAY,RIDGEWAY,VA,24148
10005834,POCAHONTAS STATE CORRECTIONAL CENTER,YES,FULL,317 OLD MOUNTAIN ROAD,POCAHONTAS,VA,24635
10003307,RED ONION STATE PRISON,YES,FULL,10800 H. JACK ROSE HIGHWAY,POUND,VA,24279
10006218,RIVER NORTH CORRECTIONAL CENTER,YES,FULL,329 DELLBROOK LANE,INDEPENDENCE,VA,24348
10003289,RUSTBURG CORRECTIONAL UNIT,NO,NONE,479 CAMP NINE ROAD,RUSTBURG,VA,24588
10000925,ST. BRIDES CORRECTIONAL CENTER,YES,FULL,701 SANDERSON ROAD,CHESAPEAKE,VA,23328
10001579,STATE FARM CORRECTIONAL CENTER,YES,FULL,3500 WOODS WAY,STATE FARM,VA,23160
20000080,STATE FARM ENTERPRISE UNIT,NO,NONE,3600 WOODS WAY,STATE FARM,VA,23160
NA,STATE FARM WORK CENTER,NO,NONE,1954 STATE FARM ROAD,STATE FARM,VA,23160
10001593,SUSSEX I STATE PRISON,YES,FULL,24414 MUSSELWHITE DRIVE,WAVERLY,VA,23891
10001594,SUSSEX II STATE PRISON,YES,FULL,24427 MUSSELWHITE DRIVE,WAVERLY,VA,23891
10001575,VIRGINIA CORRECTIONAL CENTER FOR WOMEN,YES,FULL,2841 RIVER ROAD,GOOCHLAND,VA,23063
10001591,WALLENS RIDGE STATE PRISON,YES,FULL,272 DOGWOOD DR,BIG STONE GAP,VA,24219
10003308,WISE CORRECTIONAL UNIT,NO,NONE,3602 BEAR LANE,COEBURN,VA,24230
10001677,AIRWAY HEIGHTS CORRECTIONS CENTER,YES,FULL,11919 SPRAGUE AVE,AIRWAY HEIGHTS,WA,99001
10000987,CLALLAM BAY CORRECTIONS CENTER,NO,NONE,1830 EAGLE CREST WAY,CLALLAM BAY,WA,98326
10002491,CEDAR CREEK CORRECTIONS CENTER,NO,NONE,12200 BORDEAUX ROAD,LITTLEROCK,WA,98556
10001687,COYOTE RIDGE CORRECTIONS CENTER,YES,FULL,1301 N EPHRATA AVE,CONNELL,WA,99326
10001676,MONROE CORRECTIONAL COMPLEX,YES,PARTIAL,16550 177TH AVENUE SE,MONROE,WA,98272
10002479,MISSION CREEK CORRECTIONS CENTER FOR WOMEN,YES,FULL,3420 NE SAND HILL ROAD,BELFAIR,WA,98528
10002455,OLYMPIC CORRECTIONS CENTER,NO,NONE,11235 HOH MAINLINE,FORKS,WA,98331
10001681,STAFFORD CREEK CORRECTIONS CENTER ,YES,PARTIAL,191 CONSTANTINE WAY,ABERDEEN,WA,98520
10001679,WASHINGTON CORRECTIONS CENTER ,NO,NONE,2321 WEST DAYTON AIRPORT ROAD,SHELTON,WA,98584
10001684,WASHINGTON CORRECTIONS CENTER FOR WOMEN,YES,PARTIAL,9601 BUJACICH RD. NW,GIG HARBOR,WA,98332
10002506,WASHINGTON STATE PENITENTIARY,YES,FULL,1313 NORTH 13TH AVENUE,WALLA WALLA,WA,99362
10000092,CALEDONIA COMMUNITY WORK CAMP,NO,NONE,1266 US ROUTE 5,ST. JOHNSBURY,VT,05819
10001914,CHITTENDEN REGIONAL CORRECTIONAL FACILITY,YES,FULL,7 FARRELL ST,SOUTH BURLINGTON,VT,05403
10000095,MARBLE VALLEY REGIONAL CORRECTIONAL FACILITY,YES,FULL,67 STATE ST,RUTLAND,VT,05701
10001918,NORTHEAST REGIONAL CORRECTIONAL FACILITY,NO,NONE,1270 US-5,ST JOHNSBURY,VT,05819
10001913,NORTHERN STATE CORRECTIONAL FACILITY,NO,NONE,2559 GLEN RD,NEWPORT,VT,05855
10001116,NORTHWEST STATE CORRECTIONAL FACILITY,NO,NONE,3649 LOWER NEWTON RD,ST. ALBANS TOWN,VT,05478
10000094,SOUTHERN STATE CORRECTIONAL FACILITY,NO,NONE,700 CHARLESTOWN RD,SPRINGFIELD,VT,05156
10001121,JAMESON ANNEX,YES,FULL,"1600 NORTH DRIVE, PO BOX 5911",SIOUX FALLS,SD,57117
10001128,MIKE DURFEE STATE PRISON,YES,PARTIAL,1412 NORTH WOOD STREET,SPRINGFIELD,SD,57062
NA,PIERRE MINIMUM CENTER,YES,FULL,3200 EAST HIGHWAY 34 C/O 500 E. CAPITOL AVE.,PIERRE,SD,57501
10001118,RAPID CITY MINIMUM CENTER,YES,FULL,2725 CREEK DRIVE,RAPID CITY,SD,57703
NA,SIOUX FALLS MINIMUM CENTER,YES,FULL,"1600 NORTH DRIVE, PO BOX 5911",SIOUX FALLS,SD,57117
10001123,SOUTH DAKOTA STATE PENITENTIARY,YES,FULL,"1600 NORTH DRIVE, PO BOX 5911",SIOUX FALLS,SD,57117
10002657,SOUTH DAKOTA WOMEN'S PRISON,YES,FULL,3200 EAST HIGHWAY 34 C/O 500 E. CAPITOL AVE.,PIERRE,SD,57501
10001125,YANKTON MINIMUM CENTER,YES,FULL,178 MICKELSON DRIVE,YANKTON,SD,57078
10006153,AUGUSTA STATE MED. PRISON,YES,PARTIAL,3001 GORDON HWY,GROVETOWN,GA,30813
10000325,AUTRY STATE PRISON,YES,FULL,3178 MOUNT ZION CHURCH ROAD,PELHAM,GA,31779
10002129,BALDWIN STATE PRISON,YES,FULL,140 LAYING FARM ROAD,HARDWICK,GA,31034
10001421,BURRUSS CORRECTIONAL TRAINING CTR,YES,FULL,1000 INDIAN SPRINGS DRIVE,FORSYTH,GA,31029
10002146,CALHOUN STATE PRISON,YES,FULL,27823 MAIN STREET,MORGAN,GA,39866
10002134,CENTRAL STATE PRISON,YES,FULL,4600 FULTON MILL ROAD,MACON,GA,31208
10000314,COASTAL STATE PRISON,YES,FULL,200 GULF STREAM ROAD,GARDEN CITY,GA,31418
10002138,DODGE STATE PRISON,YES,PARTIAL,2971 OLD BETHEL CHURCH ROAD,CHESTER,GA,31012
10006154,DOOLY STATE PRISON,YES,PARTIAL,1412 PLUNKETT ROAD,UNADILLA,GA,31091
10004496,EMANUEL WOMEN'S FACILITY,YES,FULL,714 GUMLOG ROAD,SWAINSBORO,GA,30401
20000200,GA DIAGNOSTIC CLASS PRISON,YES,PARTIAL,2978 HWY 36 WEST PRISON BLVD,JACKSON,GA,30233
10000297,HANCOCK STATE PRISON,YES,PARTIAL,701 PRISON BLVD,SPARTA,GA,31087
10000284,HAYS STATE PRISON,YES,PARTIAL,777 UNDERWOOD DRIVE,TRION,GA,30753
10001415,HELMS FACILITY,YES,FULL,1275 CONSTITUTION RD SE,ATLANTA,GA,30316
10000303,JOHNSON STATE PRISON,YES,PARTIAL,290 DONOVAN- HARRISON ROAD,WRIGHTSVILLE,GA,31096
10002102,LEE ARRENDALE STATE PRISON,YES,PARTIAL,2023 GAINESVILLE HWY,ALTO,GA,30510
10000323,LEE STATE PRISON,YES,FULL,153 PINEWOOD DRIVE,LEESBURG,GA,31763
10005199,LONG UNIT,YES,FULL,1434 US HWY 84 EAST,LUDOWICI,GA,31316
10002137,MACON STATE PRISON,YES,FULL,2728 HWY 49 SOUTH,OGLETHORPE,GA,31068
10000292,METRO REENTRY FACILITY,YES,FULL,1301 CONSTITUTION ROAD SE,ATLANTA,GA,30316
10000308,MONTGOMERY STATE PRISON,YES,FULL,650 MT. VERNON/ ALSTON RD,MT. VERNON,GA,30445
10002106,PHILLIPS STATE PRISON,NO,NONE,2989 WEST ROCK QUARRY ROAD,BUFORD,GA,30519
10000307,PULASKI STATE PRISON,YES,FULL,373 UPPER RIVER ROAD,HAWKINSVILLE,GA,31036
10000310,ROGERS STATE PRISON,YES,PARTIAL,1978 GEORGIA HIGHWAY 147,REIDSVILLE,GA,30453
10000304,RUTLEDGE STATE PRISON,YES,FULL,7175 MANOR ROAD,COLUMBUS,GA,31907
10000309,SMITH STATE PRISON,YES,PARTIAL,9676 HWY 301 NORTH,GLENNVILLE,GA,30427
10000316,TELFAIR STATE PRISON,YES,PARTIAL,170 LONGBRIDGE ROAD,HELENA,GA,31037
10000328,VALDOSTA STATE PRISON,NO,NONE,3259 VALTECH ROAD,VALDOSTA,GA,31601
10000329,VALDOSTA STATE PRISON ANNEX,YES,FULL,3259 VALTECH ROAD,VALDOSTA,GA,31601
10000283,WALKER STATE PRISON,YES,FULL,97 KEVIN LANE,ROCK SPRING,GA,30739
10002147,WARE STATE PRISON,YES,PARTIAL,3620 HARRIS ROAD,WAYCROSS,GA,31503
10002126,WASHINGTON STATE PRISON,NO,PARTIAL,13262 HIGHWAY 24 EAST,DAVISBORO,GA,31018
10004453,WHITWORTH WOMEN'S FACILITY,YES,FULL,414 VALLEY HART ROAD,HARTWELL,GA,30643
10000318,WILCOX STATE PRISON,YES,PARTIAL,470 SOUTH BROAD STREET,ABBEVILLE,GA,31001
10002400,BRIDGEPORT CORRECTIONAL CENTER,YES,PARTIAL,1106 NORTH AVENUE,BRIDGEPORT,CT,06604
10002399,BROOKLYN CORRECTIONAL INSTITUTION,YES,FULL,59 HARTFORD ROAD,BROOKLYN,CT,06234
10000937,CHESHIRE CORRECTIONAL INSTITUTION,YES,FULL,900 HIGHLAND AVENUE,CHESHIRE,CT,06410
20000141,CORRIGAN CORRECTIONAL CENTER,YES,FULL,986 NORWICH-NEW LONDON TURNPIKE,UNCASVILLE,CT,06382
20000142,CYBULSKI COMMUNITY REINTEGRATION CENTER,YES,FULL,264 BILTON ROAD,SOMERS,CT,06071
10000934,GARNER CORRECTIONAL INSTITUTION,YES,FULL,50 NUNNAWAUK ROAD,NEWTOWN,CT,06470
10000926,HARTFORD CORRECTIONAL CENTER,YES,PARTIAL,177 WESTON STREET,HARTFORD,CT,06120
10000927,MACDOUGALL-WALKER CORRECTIONAL INSTITUTION,YES,FULL,1153 EAST STREET,SOUTH SUFFIELD,CT,06080
10005380,NEW HAVEN CORRECTIONAL CENTER,YES,FULL,245 WHALLEY AVENUE,NEW HAVEN,CT,06511
10000928,OSBORN CORRECTIONAL INSTITUTION,NO,NONE,335 BILTON ROAD POB 100,SOMERS,CT,06071
10001605,ROBINSON CORRECTIONAL INSTITUTION,YES,FULL,285 SHAKER ROAD POB 1400,ENFIELD,CT,06082
10000933,YORK CORRECTIONAL INSTITUTION,YES,FULL,201 WEST MAIN STREET,NIANTIC,CT,06357
10001734,ALLEN GAMBLE CORRECTIONAL CENTER,YES,FULL,6888 E 133RD ROAD,HOLDENVILLE,OK,74848
10003565,"CHARLES E. ""BILL"" JOHNSON CORRECTIONAL CENTER",YES,PARTIAL,1856 E FLYNN ST,ALVA,OK,73717
10002629,CLARA WATERS COMMUNITY CORRECTIONS CENTER,YES,FULL,9901 N I- 35 SERVICE RD,OKLAHOMA CITY,OK,73131
10003568,DICK CONNER CORRECTIONAL CENTER,NO,NONE,129 CONNER ROAD,HOMINY,OK,74035
10003571,DR. EDDIE WARRIOR CORRECTIONAL CENTER,YES,FULL,601 N OAK ST,TAFT,OK,74463
10001722,ENID COMMUNITY CORRECTIONS CENTER,YES,FULL,2020 E MAINE AVE,ENID,OK,73701
10003579,GREAT PLAINS CORRECTIONAL CENTER,YES,FULL,700 SUGAR CREEK RD,HINTON,OK,73047
10003591,HOWARD MCLEOD CORRECTIONAL CENTER,NO,NONE,19603 E. WHIPPOORWILL LANE,ATOKA,OK,74525
10003585,JACKIE BRANNON CORRECTION CENTER,YES,FULL,900 N. WEST STREET,MCALESTER,OK,74502
10001016,JAMES CRABTREE CORRECTION CENTER,YES,FULL,216 N. MURRAY STREET,HELENA,OK,73741
10001725,JESS DUNN CORRECTIONAL CENTER,YES,PARTIAL,601 SOUTH 124TH STREET WEST,TAFT,OK,74463
10001731,JIM E. HAMILTON CORRECTIONAL CENTER,YES,PARTIAL,53468 MINERAL SPRING RD,HODGEN,OK,74939
10001729,JOHN LILLEY CORRECTIONAL CENTER,YES,PARTIAL,407971 HWY 62E,BOLEY,OK,74829
10001732,JOSEPH HARP CORRECTIONAL CENTER,YES,PARTIAL,16161 MOFFATT RD,LEXINGTON,OK,73051
10003590,LAWTON COMMUNITY CORRECTIONS CENTER,YES,FULL,605 SOUTHWEST COOMBS ROAD,LAWTON,OK,73501
10001733,LEXINGTON ASSESSMENT & RECEPTION CENTER,YES,PARTIAL,15151 STATE HIGHWAY 39,LEXINGTON,OK,73051
10003580,MABEL BASSETT CORRECTIONAL CENTER,YES,FULL,29501 KICKAPOO RD.,MCLOUD,OK,74851
10003592,MACK ALFORD CORRECTIONAL CENTER,YES,FULL,13001 NORTH HIGHWAY 69,ATOKA,OK,74525
10003566,NORTHEAST OKLAHOMA COMMUNITY CORRECTIONS CENTER,YES,FULL,442586 E. 250 ROAD,VINITA,OK,74301
10003584,OKLAHOMA STATE PENITENTIARY,YES,FULL,1301 N. WEST ST.,MCALESTER,OK,74502
10003587,OKLAHOMA STATE REFORMATORY,YES,FULL,1700 E 1ST ST,GRANITE,OK,73547
10003572,UNION CITY COMMUNITY CORRECTIONS CENTER,YES,FULL,700 NORTH HIGHWAY 81,UNION CITY,OK,73090
10000100,BOLDUC CORRECTIONAL FACILITY,NO,NONE,516 CUSHING ROAD,WARREN,ME,04864
10001162,DOWNEAST CORRECTIONAL FACILITY,NO,NONE,64 BASE ROAD,MACHIASPORT,ME,04655
10001165,MAINE CORRECTIONAL CENTER,YES,FULL,17 MALLISON FALLS RD,WINDHAM,ME,04062
10001163,MAINE STATE PRISON,YES,PARTIAL,807 CUSHING ROAD,WARREN,ME,04864
10001938,MOUNTAIN VIEW CORRECTIONAL FACILITY,YES,PARTIAL,1182 DOVER RD,CHARLESTON,ME,04422
NA,UTAH STATE CORRECTIONAL FACILITY,YES,FULL,1480 N. 8000 W.,SALT LAKE CITY,UT,84116
10002617,CENTRAL UTAH CORRECTIONAL FACILITY ,YES,FULL,255 E. 300 NORTH,GUNNISON,UT,84634
10001075,BRANCHVILLE CORRECTIONAL,YES,PARTIAL,21390 OLD STATE ROAD 37,BRANCHVILLE,IN,47514
10004895,CHAIN O' LAKES CORRECTIONAL,NO,NONE,3516 E 75 SOUTH,ALBION,IN,46701
10001060,CORRECTIONAL INDUSTRIAL,YES,PARTIAL,5124 W. REFORMATORY ROAD,PENDLETON,IN,46064
10004920,EDINBURGH CORRECTIONAL,NO,NONE,703 23RD ST.,EDINBURGH,IN,46124
10006309,HERITAGE TRAIL,YES,FULL,501 W. MAIN STREET,PLAINFIELD,IN,46168
10005599,INDIANA STATE PRISON,NO,NONE,1 PARK ROW,MICHIGAN CITY,IN,46360
10001065,INDIANA WOMEN'S PRISON,YES,PARTIAL,2596 GIRLS SCHOOL ROAD,INDIANAPOLIS,IN,46214
10001073,MADISON CORRECTIONAL,YES,FULL,800 MSH BUS STOP DR.,MADISON,IN,47250
10001059,MIAMI CORRECTIONAL,YES,FULL,3038 WEST 850 SOUTH,BUNKER HILL,IN,46914
10004913,NEW CASTLE CORRECTIONAL,YES,FULL,"1000 VAN NUYS ROAD, P.O. BOX E",NEW CASTLE,IN,47362
10001061,PENDLETON CORRECTIONAL,YES,PARTIAL,4490 W. REFORMATORY RD.,PENDLETON,IN,46064
10001068,PLAINFIELD CORRECTIONAL,NO,NONE,727 MOON ROAD,PLAINFIELD,IN,46168
10001071,PUTNAMVILLE CORRECTIONAL,YES,PARTIAL,1946 WEST U.S. HWY 40,GREENCASTLE,IN,46135
10001067,RECEPTION DIAGNOSTIC CENTER,YES,PARTIAL,737 MOON ROAD,PLAINFIELD,IN,46168
10001063,ROCKVILLE CORRECTIONAL,YES,FULL,811 W. 50 N.,ROCKVILLE,IN,47872
10001054,SOUTH BEND COMMUNITY RE-ENTRY CENTER,YES,FULL,4650 OLD CLEVELAND ROAD,SOUTH BEND,IN,46628
10001072,WABASH VALLEY CORRECTIONAL,YES,PARTIAL,6908 S. OLD US HWY 41,CARLISLE,IN,47838
10001051,WESTVILLE CORRECTIONAL,YES,PARTIAL,5501 S 1100 W,WESTVILLE,IN,46391
10001082,ANAMOSA STATE PENITENTIARY,YES,PARTIAL,406 NORTH HIGH STREET,ANAMOSA,IA,52205
10001099,CLARINDA CORRECTIONAL FACILITY,YES,FULL,2000 NORTH 16TH STREET,CLARINA,IA,51632
10001100,IOWA STATE PENITENTIARY,YES,FULL,"2111 330TH AVENUE, PO BOX 316",FORT MADISON,IA,52627
10001077,FORT DODGE CORRECTIONAL FACILITY,YES,FULL,1550 L STREET,FORT DODGE,IA,50501
10001087,IOWA CORRECTIONAL INSTITUTION FOR WOMEN,YES,FULL,420 MILL STREET SW,MITCHELVILLE,IA,50169
10001096,MT. PLEASANT CORRECTIONAL FACILITY,NO,NONE,1200 EAST WASHINGTON STREET,MT. PLEASANT,IA,52641
10001090,NEWTON CORRECTIONAL FACILITY,YES,FULL,"BOX 218, 307 S. 60TH AVENUE W.",NEWTON,IA,50208
10001091,IOWA MEDICAL AND CLASSIFICATION CENTER,YES,FULL,2700 CORAL RIDGE AVENUE,CORALVILLE,IA,52241
10001080,NORTH CENTRAL CORRECTIONAL FACILITY,YES,FULL,313 LANEDALE,ROCKWELL CITY,IA,50579
10006477,PERRYVILLE COMPLEX,YES,FULL,2105 N CITRUS RD,GOODYEAR,AZ,85395
10011321,EYMAN COMPLEX,NO,NONE,4374 E. BUTTE AVE.,FLORENCE,AZ,85132
10000622,YUMA COMPLEX,YES,PARTIAL,7125 E CESAR CHAVEZ BLVD.,SAN LUIS,AZ,85349
10000628,TUCSON COMPLEX,YES,PARTIAL,10000 S. WILMOT RD.,TUCSON,AZ,85734
10002248,SAFFORD COMPLEX,YES,PARTIAL,896 S. COOK RD.,SAFFORD,AZ,85546
10000605,LEWIS COMPLEX,YES,PARTIAL,26700 S. HIGHWAY 85.,BUCKEYE,AZ,85326
10002245,PHOENIX COMPLEX,YES,FULL,2500 E. VAN BUREN ST.,PHOENIX,AZ,85008
10002244,PHOENIX WEST COMPLEX,NO,NONE,3402 W COCOPAH ST.,PHOENIX,AZ,85009
10003957,KINGMAN COMPLEX,YES,PARTIAL,4626 W ENGLISH DR.,GOLDEN VALLEY,AZ,86413
10000632,DOUGLAS COMPLEX,YES,PARTIAL,6911 N. BDI BLVD.,DOUGLAS,AZ,85607
10000598,WINSLOW COMPLEX,YES,PARTIAL,2100 S. HIGHWAY 87.,WINSLOW,AZ,86047
10006312,FLORENCE WEST COMPLEX,NA,NA,915 E DIVERSION DAM RD.,FLORENCE,AZ,85132
10005784,LA PALMA COMPLEX,NA,NA,5501 N LA PALMA RD.,ELOY,AZ,85131
10003974,RED ROCK CORRECTIONAL CENTER,NA,NA,1750 E ARICA RD.,ELOY,AZ,85131
10002250,CENTRAL ARIZONA CORRECTIONAL AND REHABILITATION FACILITY ,NA,NA,1401 E DIVERSION DAM RD.,FLORENCE,AZ,85132
10001401,LEMUEL SHATTUCK HOSPITAL CORRECTIONAL UNIT,YES,PARTIAL,180 MORTON ST.,JAMAICA PLAIN,MA,02130
10001404,MASAC AT PLYMOUTH,NO,NONE,"MYLES STANDISH STATE FOREST, 1 BUMP POND RD.",PLYMOUTH,MA,02360
10002098,MASSACHUSETTS TREATMENT CENTER,YES,PARTIAL,30 ADMINISTRATION RD.,BRIDGEWATER,MA,02324
10000281,MCI-CONCORD,YES,PARTIAL,"965 ELM ST., P.O. BOX 9106",CONCORD,MA,01742
10004444,MCI-FRAMINGHAM,YES,PARTIAL,"99 LORING DR., P.O. BOX 9007",FRAMINGHAM,MA,01701
10001393,MCI-SHIRLEY,NO,NONE,104 HARVARD ROAD,SHIRLEY,MA,01464
10004449,NORTH CENTRAL CORRECTIONAL INSTITUTION,YES,PARTIAL,"500 COLONY RD., P.O. BOX 466",GARDNER,MA,01440
10004451,OLD COLONY CORRECTIONAL CENTER,YES,PARTIAL,1 ADMINISTRATION RD.,BRIDGEWATER,MA,02324
10001396,SOUZA-BARANOWSKI CORRECTIONAL CENTER,YES,FULL,1671 SHIRLEY ROAD,LANCASTER,MA,01523
10002095,BOSTON PRE-RELEASE CENTER ,NO,NONE,430 CANTERBURY STREET,ROSLINDALE,MA,02131
10002101,MCI-NORFOLK,NO,NONE,"2 CLARK ST., P.O. BOX 43",NORFOLK,MA,02056
10001392,NORTHEASTERN CORRECTIONAL CENTER,NO,NONE,"976 BARRETTS MILL RD., P.O. BOX 1069",WEST CONCORD,MA,01742
10000282,PONDVILLE CORRECTIONAL CENTER,NO,NONE,"1 INDUSTRIES DR., P.O. BOX 146",NORFOLK,MA,02056
10003134,ADIRONDACK CORRECTIONAL FACILITY,YES,PARTIAL,"196 RAY BROOK ROAD, P.O. BOX 110",RAY BROOK,NY,12977
10003145,ALBION CORRECTIONAL FACILITY,NO,NONE,3595 STATE SCHOOL ROAD,ALBION,NY,14411
10001496,ALTONA CORRECTIONAL FACILITY,NO,NONE,"555 DEVILS DEN ROAD, P.O. BOX 3000",ALTONA,NY,12910
10002287,ATTICA CORRECTIONAL FACILITY,NO,NONE,639 EXCHANGE ST,ATTICA,NY,14011
10000745,AUBURN CORRECTIONAL FACILITY,NO,NONE,135 STATE STREET,AUBURN,NY,13024
10003131,BARE HILL CORRECTIONAL FACILITY,NO,NONE,"181 BRAND RD, CALLER BOX #20",MALONE,NY,12953
10002290,BEDFORD HILLS CORRECTIONAL FACILITY,YES,PARTIAL,247 HARRIS ROAD,BEDFORD HILLS,NY,10507
10000744,CAPE VINCENT CORRECTIONAL FACILITY,NO,NONE,"36560 STATE ROUTE 12E, P.O. BOX 599",CAPE VINCENT,NY,13618
10002281,CAYUGA CORRECTIONAL FACILITY,NO,NONE,"2202 STATE ROUTE 38A, P.O. BOX 1150",MORAVIA,NY,13118
10003127,CLINTON CORRECTIONAL FACILITY,NO,NONE,"1156 RT. 374, P.O. BOX 2000",DANNEMORA,NY,12929
10003166,COLLINS CORRECTIONAL FACILITY,NO,NONE,"MIDDLE ROAD, P.O. BOX 490",COLLINS,NY,14034
10003188,COXSACKIE CORRECTIONAL FACILITY,NO,NONE,"11260 ROUTE 9W, P.O. BOX 200",COXSACKIE,NY,12051
10003195,EASTERN NY CORRECTIONAL FACILITY,YES,PARTIAL,"30 INSTITUTION RD, P.O. BOX 338",NAPANOCH,NY,12458
10003233,EDGECOMBE RESIDENTIAL TREATMENT FACILITY,YES,PARTIAL,611 EDGECOMBE AVENUE,NEW YORK,NY,10032
10003192,ELMIRA CORRECTIONAL FACILITY,NO,NONE,"1879 DAVIS ST, P.O. BOX 500",ELMIRA,NY,14901
10003198,FISHKILL CORRECTIONAL FACILITY,YES,PARTIAL,18 STRACK DRIVE,BEACON,NY,12508
10000754,FIVE POINTS CORRECTIONAL FACILITY,YES,PARTIAL,6600 STATE ROUTE 96,ROMULUS,NY,14541
10003132,FRANKLIN CORRECTIONAL FACILITY,NO,NONE,"62 BARE HILL ROAD, P.O. BOX 10",MALONE,NY,12953
10003122,GOUVERNEUR CORRECTIONAL FACILITY,NO,NONE,"112 SCOTCH SETTLEMENT ROAD, P.O. BOX 370",GOUVERNEUR,NY,13642
10001504,GREEN HAVEN CORRECTIONAL FACILITY,NO,NONE,594 RT. 216,STORMVILLE,NY,12582
10003189,GREENE CORRECTIONAL FACILITY,NO,NONE,"165 PLANK ROAD, P.O. BOX 8",COXSACKIE,NY,12051
10000756,GROVELAND CORRECTIONAL FACILITY,NO,NONE,"7000 SONYEA ROAD, P.O. BOX 50",SONYEA,NY,14556
10003156,HALE CREEK ASACTC,NO,NONE,279 MALONEY ROAD,JOHNSTOWN,NY,12095
10000761,HUDSON CORRECTIONAL FACILITY,NO,NONE,"50 EAST COURT STREET, P.O. BOX 576",HUDSON,NY,12534
10000759,LAKEVIEW SHOCK INCARCERATION CORRECTIONAL FACILITY,NO,NONE,"9300 LAKE AVENUE, P.O. BOX T",BROCTON,NY,14716
10000751,MARCY CORRECTIONAL FACILITY,NA,NA,"9000 OLD RIVER ROAD, P.O. BOX 5000",MARCY,NY,13403
10003152,MID-STATE CORRECTIONAL FACILITY,YES,PARTIAL,"9005 OLD RIVER ROAD, P. O. BOX 216",MARCY,NY,13403
10003149,MOHAWK CORRECTIONAL FACILITY,NO,NONE,"6514 RT. 26, P.O. BOX 8450",ROME,NY,13442
10003144,ORLEANS CORRECTIONAL FACILITY,NO,NONE,3531 GAINES BASIN ROAD,ALBION,NY,14411
10003204,OTISVILLE CORRECTIONAL FACILITY,NO,NONE,57 SANITORIUM ROAD,OTISVILLE,NY,10963
10003227,QUEENSBORO CORRECTIONAL FACILITY,NO,NONE,47-04 VAN DAM STREET,LONG ISLAND CITY,NY,11101
10003125,RIVERVIEW CORRECTIONAL FACILITY,NO,NONE,"1110 TIBBITS DRIVE, P.O. BOX 158",OGDENSBURG,NY,13669
10000763,SHAWANGUNK CORRECTIONAL FACILITY,YES,PARTIAL,200 QUICK ROAD. P. O. BOX 750,WALLKILL,NY,12589
10003209,SING SING CORRECTIONAL FACILITY,YES,PARTIAL,354 HUNTER STREET,OSSINING,NY,10562
10003208,TACONIC CORRECTIONAL FACILITY,NO,NONE,250 HARRIS ROAD,BEDFORD HILLS,NY,10507
10003196,ULSTER CORRECTIONAL FACILITY,NO,NONE,"750 BERME ROAD, P.O. BOX 800",NAPANOCH,NY,12458
10003130,UPSTATE CORRECTIONAL FACILITY,NO,NONE,"309 BARE HILL ROAD, P.O. BOX 2000",MALONE,NY,12953
10003197,WALLKILL CORRECTIONAL FACILITY,YES,PARTIAL,"50 MCKENDRICK ROAD, P.O. BOX G",WALLKILL,NY,12589
10003140,WASHINGTON CORRECTIONAL FACILITY,NO,NONE,"72 LOCK ELEVEN LANE, P.O. BOX 180",COMSTOCK,NY,12821
10003165,WENDE CORRECTIONAL FACILITY,NO,NONE,3040 WENDE ROAD,ALDEN,NY,14004
10003201,WOODBOURNE CORRECTIONAL FACILITY,NO,NONE,"99 PRISON ROAD, P.O. BOX 1000",WOODBOURNE,NY,12788
10003175,WYOMING CORRECTIONAL FACILITY,NO,NONE,"3203 DUNBAR ROAD, P.O. BOX 501",ATTICA,NY,14011
10006189,WYOMING MEDIUM CORRECTIONAL INSTITUTION (WMCI) ,YES,FULL,7076 ROAD 55F,TORRINGTON,WY,82240
10000056,WYOMING WOMEN’S CENTER (WWC),YES,FULL,1000 W GRIFFITH STREET,LUSK,WY,82225
10000057,WYOMING STATE PENITENTIARY (WSP),YES,FULL,2900 S HIGLEY ROAD,ROAWLINS,WY,82301
10000053,WHCC WYOMING HONOR CONSERVATION CAMP,YES,FULL,40 PIPPIN ROAD,NEWCASTLE,WY,82701
10000055,WYOMING HONOR FARM (WHF),YES,FULL,40 HONOR FARM ROAD,RIVERTON,WY,82501
10011319,MCF-MOOSE LAKE,NO,NONE,1000 LAKESHORE DR,MOOSE LAKE,MN,55767
10001322,MCF-RUSH CITY,YES,FULL,7600 525TH ST,RUSH CITY,MN,55069
10001325,MCF-LINO LAKES,YES,PARTIAL,7525 4TH AVE,LINO LAKES,MN,55014
10001330,MCF-STILLWATER,YES,PARTIAL,970 PICKETT AVE N,BAYPORT,MN,55003
10001331,MCF-OAK PARK HEIGHTS,YES,FULL,5329 N OSGOOD AVE,OAK PARK HEIGHTS,MN,55082
10001333,MCF-SHAKOPEE,YES,FULL,1010 6TH AVE W,SHAKOPEE,MN,55379
10002066,MCF-RED WING,YES,FULL,1079 COUNTY 292 BLVD,RED WING,MN,55066
10001318,MCF-TOGO,NO,NONE,62741 CO RD 551,COOK,MN,55723
10001324,MCF-ST. CLOUD,YES,PARTIAL,2305 MINNESOTA BLVD,ST CLOUD,MN,56304
10006211,MCF-WILLOW RIVER,YES,FULL,1000 LAKESHORE DR,MOOSE LAKE,MN,55767
10000262,MCF-FARIBAULT,YES,PARTIAL,1101 LINDEN LN,FARIBAULT,MN,55021
10003601,NORTH DAKOTA STATE PENITENTIARY,YES,FULL,3100 RAILROAD AVE.,BISMARCK,ND,58506
10003603,JAMES RIVER CORRECTIONAL CENTER,YES,FULL,2521 CIRCLE DRIVE,JAMESTOWN,ND,58401
10003602,MISSOURI RIVER CORRECTIONAL CENTER,YES,FULL,1800 48TH AVE S.W.,BISMARCK,ND,58506
NA,HEART RIVER CORRECTIONAL CENTER,YES,FULL,701 16TH AVE SW,MANDAN,ND,58554
10000122,BELL COUNTY FORESTRY CAMP,YES,FULL,560 CORRECTIONAL DRIVE,PINEVILLE,KY,40977
10003650,BLACKBURN CORRECTIONAL COMPLEX,YES,FULL,3111 SPURR ROAD,LEXINGTON,KY,40511
10000110,EASTERN KY CORRECTIONAL COMPLEX,YES,FULL,200 ROAD TO JUSTICE,WEST LIBERTY,KY,41472
10000117,GREEN RIVER CORRECTIONAL COMPLEX,YES,FULL,1200 RIVER ROAD P.O. BOX 9300,CENTRAL CITY,KY,42330
10000106,KY CORRECTIONAL INSTITUTION FOR WOMEN,YES,FULL,3000 ASH AVE.,PEWEE VALLEY,KY,40056
10000120,KENTUCKY STATE PENITENTIARY,YES,FULL,266 WATER STREET,EDDYVILLE,KY,42038
10000103,KENTUCKY STATE REFORMATORY,YES,FULL,3001 W HWY 146,LAGRANGE,KY,40032
10000115,LEE ADJUSTMENT CENTER,YES,FULL,168 LEE ADJUSTMENT CENTER DRIVE,BEATTYVILLE,KY,41311
10000107,LITTLE SANDY CORRECTIONAL COMPLEX,YES,FULL,505 PRISON CONNECTOR,SANDY HOOK,KY,41171
10000101,LUTHER LUCKETT CORRECTIONAL COMPLEX,YES,FULL,1612 DAWKINS ROAD P.O. ​BOX 6,LAGRANGE,KY,40031
10000116,NORTHPOINT TRAINING CENTER,YES,FULL,710 WALTER REED RD.,DANVILLE,KY,40422
10000102,ROEDERER CORRECTIONAL COMPLEX,YES,FULL,P.O. BOX 69,LAGRANGE,KY,40031
10000112,SOUTHEAST STATE CORRECTIONAL COMPLEX,YES,FULL,327 CORRECTIONAL DRIVE P.O. BOX 1600,WHEELWRIGHT,KY,41669
10000121,WESTERN KENTUCKY CORRECTIONS COMPLEX,YES,FULL,374 NEW BETHEL CHURCH ROAD,FREDONIA,KY,42411
10001552,BALTIMORE CITY CORRECTIONAL CENTER,NO,NONE,901 GREENMOUNT AVE.,BALTIMORE,MD,21202
10002359,CENTRAL MARYLAND CORRECTIONAL FACILITY,NO,NONE,7301 BUTTERCUP RD.,SYKESVILLE,MD,21784
10006353,DORSEY RUN CORRECTIONAL INSTITUTION,NO,NONE,2020 TOULSON RD.,JESSUP,MD,20794
10001569,EASTERN CORRECTIONAL ANNEX,NO,NONE,30430 REVELLS NECK RD.,WESTOVER,MD,21890
10001569,EASTERN CORRECTIONAL INSTITUTION,NO,NONE,30420 REVELLS NECK RD.,WESTOVER,MD,21890
10000919,JESSUP CORRECTIONAL INSTITUTION,NO,NONE,7805 HOUSE OF CORRECTIONS RD.,JESSUP,MD,20794
10001559,MARYLAND CORRECTIONAL INSTITUTION FOR WOMEN,NO,NONE,7943 BROCK BRIDGE RD.,JESSUP,MD,20794
10001548,MARYLAND CORRECTIONAL INSTITUTION HAGERSTOWN,NO,NONE,18601 ROXBURY RD.,HAGERSTOWN,MD,21746
10001546,MARYLAND CORRECTIONAL TRAINING CENTER,NO,NONE,18800 ROXBURY RD.,HAGERSTOWN,MD,21746
10001560,MAYLAND CORRECTIONAL INSTITUTION JESSUP,NO,NONE,7931 BROCK BRIDGE RD.,JESSUP,MD,20794
10001543,NORTH BRANCH CORRECTIONAL INSTITUTION,NO,NONE,14100 MCMULLEN HWY,CUMBERLAND,MD,21502
10002364,PATUXENT INSTITUTION,NO,NONE,7555 WATERLOO RD.,JESSUP,MD,20794
10001547,ROXBURY CORRECTIONAL INSTITUION,NO,NONE,18701 ROXBURY RD.,HAGERSTOWN,MD,21746
10001542,WESTERN CORRECTIONAL INSTITUTION,NO,NONE,13800 MCMULLEN HWY,CUMBERLAND,MD,21502
10002716,ALLRED,YES,PARTIAL,2101 FM 369 NORTH,IOWA PARK,TX,76367
10001978,BETO,YES,PARTIAL,1391 FM 3328,TENNESSEE COLONY,TX,75880
10000190,BOYD,YES,PARTIAL,200 SPUR 113,TEAGUE,TX,75860
10000247,BRISCOE,YES,PARTIAL,1459 WEST HIGHWAY 85,DILLEY,TX,78017
10001984,BYRD,NO,NONE,21 FM 247,HUNTSVILLE,TX,77320
10000243,CLEMENS,NO,NONE,11034 HWY 36,BRAZORIA,TX,77422
10000154,CLEMENTS,YES,PARTIAL,9601 SPUR 591,AMARILLO,TX,79107
10000187,COFFIELD,NO,NONE,2661 FM 2054,TENNESSEE COLONY,TX,75884
10002905,CONNALLY,YES,PARTIAL,899 FM 632,KENEDY,TX,78119
10002920,COTULLA,YES,FULL,610 FM 624,COTULLA,TX,78014
10001275,CRAIN,YES,PARTIAL,1401 STATE SCHOOL ROAD,GATESVILLE,TX,76599
10000151,DALHART,YES,PARTIAL,11950 FM 998,DALHART,TX,79022
10000174,DANIEL,YES,PARTIAL,938 SOUTH FM 1673,SNYDER,TX,79549
10000212,ELLIS,NO,NONE,1697 FM 980,HUNTSVILLE,TX,77343
10000215,ESTELLE,YES,PARTIAL,264 FM 3478,HUNTSVILLE,TX,77320
10000206,FERGUSON,NO,NONE,12120 SAVAGE DRIVE,MIDWAY,TX,75852
10000200,FORT STOCKTON,YES,FULL,1536 IH-10 EAST,FORT STOCKTON,TX,79735
10002916,GARZA WEST,YES,PARTIAL,4250 HIGHWAY 202,BEEVILLE,TX,78102
10000204,GOODMAN,YES,PARTIAL,349 PRIVATE ROAD 8430,JASPER,TX,75951
10000213,GOREE,NO,NONE,7405 HWY 75 SOUTH,HUNTSVILLE,TX,77344
10000224,HIGHTOWER,NO,NONE,902 FM 686,DAYTON,TX,77535
10002817,HILLTOP,YES,PARTIAL,1500 STATE SCHOOL ROAD,GATESVILLE,TX,76598
10002827,HOBBY,YES,PARTIAL,742 FM 712,MARLIN,TX,76661
10000209,HOLLIDAY,YES,PARTIAL,295 IH-45 NORTH,HUNTSVILLE,TX,77320
10000196,HUGHES,YES,PARTIAL,3201 FM 929,GATESVILLE,TX,76597
10000210,HUNTSVILLE,NO,NONE,815 12TH STREET,HUNTSVILLE,TX,77348
10000234,JESTER III,YES,PARTIAL,3 JESTER ROAD,RICHMOND,TX,77406
10000152,JORDAN,YES,PARTIAL,1992 HELTON ROAD,PAMPA,TX,79065
10000208,LEWIS,YES,PARTIAL,777 FM 3497,WOODVILLE,TX,75990
10000220,LUTHER,YES,PARTIAL,1800 LUTHER DRIVE,NAVASOTA,TX,77868
10000203,LYNAUGH,YES,PARTIAL,1098 SOUTH HIGHWAY 2037,FORT STOCKTON,TX,79735
10002828,MARLIN,YES,FULL,2893 STATE HWY 6,MARLIN,TX,76661
10000248,MCCONNELL,YES,PARTIAL,3001 SOUTH EMILY DRIVE,BEEVILLE,TX,78102
10000155,MECHLER,YES,FULL,4000 HIGHWAY 86 WEST,TULIA,TX,79088
10000246,MEMORIAL,NO,NONE,59 DARRINGTON ROAD,ROSHARON,TX,77583
10000186,MICHAEL,YES,PARTIAL,2664 FM 2054,TENNESSEE COLONY,TX,75886
10000176,MIDDLETON,YES,PARTIAL,13055 FM 3522,ABILENE,TX,79601
10002725,"MOORE, C.",YES,PARTIAL,1700 NORTH FM 87,BONHAM,TX,75418
10001274,MURRAY,YES,PARTIAL,1916 NORTH HWY 36 BYPASS,GATESVILLE,TX,76596
10000238,NEY,YES,FULL,114 PRIVATE ROAD 4303,HONDO,TX,78861
10002838,PACK,YES,FULL,2400 WALLACE PACK ROAD,NAVASOTA,TX,77868
10000205,POLUNSKY,YES,PARTIAL,3872 FM 350 SOUTH,LIVINGSTON,TX,77351
10000185,POWLEDGE,YES,PARTIAL,1400 FM 3452,PALESTINE,TX,75803
10000242,RAMSEY,NO,NONE,1100 FM 655,ROSHARON,TX,77583
10000156,ROACH,YES,PARTIAL,15845 FM 164,CHILDRESS,TX,79201
10000175,ROBERTSON,YES,PARTIAL,12071 FM 3522,ABILENE,TX,79601
10000199,SAN SABA,YES,FULL,206 SOUTH WALLACE CREEK ROAD,SAN SABA,TX,76877
10002758,SMITH,YES,PARTIAL,1313 CR 19,LAMESA,TX,79331
10002900,STEVENSON,YES,PARTIAL,1525 FM 766,CUERO,TX,77954
10000229,STILES,YES,PARTIAL,3060 FM 3514,BEAUMONT,TX,77705
10000244,STRINGFELLOW,NO,NONE,1200 FM 655,ROSHARON,TX,77583
10002731,TELFORD,YES,PARTIAL,3899 HWY 98,NEW BOSTON,TX,75570
10000241,TERRELL,YES,PARTIAL,1300 FM 655,ROSHARON,TX,77583
10000237,TORRES,YES,PARTIAL,125 PRIVATE ROAD 4303,HONDO,TX,78861
10002885,VANCE,NO,NONE,2 JESTER ROAD,RICHMOND,TX,77406
10002822,WAINWRIGHT,NO,NONE,2665 PRISON ROAD #1,LOVELADY,TX,75851
10000180,WALLACE/SAN ANGELO WORK CAMP,YES,PARTIAL,1675 SOUTH FM 3525,COLORADO CITY,TX,79512
10000211,WYNNE,NO,NONE,810 FM 2821,HUNTSVILLE,TX,77349
10001721,ANTHONY P. TRAVISONO INTAKE SERVICE CENTER,YES,FULL,18 SLATE HILL ROAD,CRANSTON,RI,02920
10003561,HIGH SECURITY CENTER,YES,FULL,54 POWER ROAD,CRANSTON,RI,02920
10003554,MAXIMUM SECURITY,NO,NONE,1375 PONTIAC AVENUE,CRANSTON,RI,02920
10003556,JOHN J. MORAN MEDIUM SECURITY FACILITY,YES,FULL,51 WEST ROAD,CRANSTON,RI,02920
10003557,MINIMUM SECURITY,NO,NONE,16 HOWARD AVENUE,CRANSTON,RI,02920
10003558,GLORIA MCDONALD WOMEN’S FACILITY,YES,FULL,20 FLEMING ROAD,CRANSTON,RI,02920
10001040,ELLSWORTH CORRECTIONAL FACILITY,YES,PARTIAL,1607 STATE STREET,ELLSWORTH,KS,67439
10001045,EL DORADO CORRECTIONAL FACILITY,YES,FULL,1734 SE US HIGHWAY 54,EL DORADO,KS,67042
NA,HUTCHINSON CORRECTIONAL FACILITY,NO,NONE,500 SOUTH REFORMATORY ROAD,HUTCHINSON,KS,67504
NA,LANSING CORRECTIONAL FACILITY,YES,FULL,301 EAST KANSAS,LANSING,KS,66043
10001830,LARNED STATE CORRECTIONAL FACILITY,YES,FULL,1318 KANSAS HIGHWAY 264,LARNED,KS,67550
10001028,NORTON CORRECTIONAL FACILITY,YES,PARTIAL,11130 RD E4,NORTON,KS,67654
10001033,TOPEKA CORRECTIONAL FACILITY,YES,FULL,815 SE RICE ROAD,TOPEKA,KS,66607
10001050,WINFIELD CORRECTIONAL FACILITY,YES,PARTIAL,1806 PINECREST CIRCLE,WINFIELD,KS,67156
10000709,ALBION,YES,FULL,10745 ROUTE 18,ALBION,PA,16475
10006363,BENNER,YES,FULL,301 INSTITUTION DR,BELLEFONTE,PA,16823
10003048,CAMBRIDGE SPRINGS,YES,FULL,451 FULLERTON AVE,CAMBRIDGE SPRINGS,PA,16403
10000733,CAMP HILL,YES,FULL,2500 LISBURN RD,CAMP HILL,PA,17001
10003117,CHESTER,YES,FULL,500 E 4TH ST,CHESTER,PA,19013
10003064,COAL TOWNSHIP,YES,FULL,10 KELLEY DR,COAL TOWNSHIP,PA,17866
10000718,DALLAS,YES,FULL,1000 FOLLIES RD,DALLAS,PA,18612
10003109,FAYETTE,YES,FULL,50 OVERLOOK DR,LABELLE,PA,15450
10003052,FOREST,YES,FULL,286 WOODLAND DR,MARIENVILLE,PA,16239
10003074,FRACKVILLE,YES,FULL,1111 ALTAMONT BLVD,FRACKVILLE,PA,17931
10003121,GREENE,YES,FULL,169 PROGRESS DR,WAYNESBURG,PA,15370
10000721,HOUTZDALE,YES,FULL,209 INSTITUTION DR,HOUTZDALE,PA,16654
10000728,HUNTINGDON,YES,FULL,1100 PIKE,ST HUNTINGDON,PA,16654
10003107,LAUREL HIGHLANDS,YES,FULL,5706 GLADES PIKE,SOMERSET,PA,15501
10003073,MAHANOY,YES,FULL,301 MOREA RD,FRACKVILLE,PA,17932
10003056,MERCER,YES,FULL,801 BUTLER PIKE,MERCER,PA,16137
10003054,MUNCY,YES,FULL,6454 ROUTE 405,MUNCY,PA,17756
NA,PHOENIX,YES,FULL,1200 MOKYCHIC DR,COLLEGEVILLE,PA,19426
10003077,PINE GROVE,YES,FULL,189 FYOCK RD,INDIANA,PA,15701
10001489,QUEHANNA BOOT CAMP,NO,NONE,4395 QUEHANNA HWY,KARTHAUS,PA,16845
10003062,ROCKVIEW,YES,FULL,1 ROCKVIEW PL,BELLEFONTE,PA,16823
10003082,SMITHFIELD,YES,FULL,1120 PIKE ST,HUNTINGDON,PA,16652
10000737,SOMERSET,YES,FULL,1590 WALTERS MILL RD,SOMERSET,PA,15510
10003047,WAYMART,YES,FULL,11 FARVIEW DR,WAYMART,PA,18472
10001786,ALBEMARLE CORRECTIONAL INSTITUTION,YES,FULL,44150 AIRPORT ROAD,NEW LONDON,NC,28127
10001023,ALEXANDER CORRECTIONAL INSTITUTION,YES,FULL,633 OLD LANDFILL ROAD,TAYLORSVILLE,NC,28681
10001790,ANSON CORRECTIONAL INSTITUTION,YES,FULL,552 PRISON CAMP ROAD,POLKTON,NC,28135
10006147,AVERY-MITCHELL CORRECTIONAL INSTITUTION,YES,PARTIAL,600 AMITY PARK ROAD,SPRUCE PINE,NC,28777
10001759,BERTIE CORRECTIONAL INSTITUTION,YES,FULL,218 COOPER HILL ROAD,WINDSOR,NC,27983
NA,BROWN CREEK CORRECTIONAL INSTITUTION,YES,PARTIAL,P.O. BOX 310,POLKTON,NC,28135
10004170,CALDWELL CORRECTIONAL CENTER,YES,FULL,480 PLEASANT HILL ROAD,LENOIR,NC,28645
10004216,CARTERET CORRECTIONAL CENTER,YES,FULL,1084 ORANGE STREET,NEWPORT,NC,28570
10001749,CASWELL CORRECTIONAL CENTER,YES,FULL,444 COUNTY HOME ROAD,BLANCH,NC,27212
10002638,CATAWBA CORRECTIONAL CENTER,YES,PARTIAL,1347 PRISON CAMP ROAD,NEWTON,NC,28658
10001766,CENTRAL PRISON,YES,FULL,1300 WESTERN BOULEVARD,RALEIGH,NC,27606
10001798,COLUMBUS CORRECTIONAL INSTITUTION,YES,PARTIAL,1255 PRISON CAMP ROAD,WHITEVILLE,NC,28472
10002640,CRAGGY CORRECTIONAL INSTITUTION,NO,NONE,22 CANOE LANE,ASHEVILLE,NC,28804
10001787,CRAVEN CORRECTIONAL INSTITUTION,YES,PARTIAL,600 ALLIGATOR ROAD,VANCEBORO,NC,28586
10001750,DAN RIVER PRISON WORK FARM,YES,FULL,981 MURRAY ROAD,BLANCH,NC,27212
10004177,DAVIDSON CORRECTIONAL CENTER,YES,FULL,1400 THOMASON STREET,LEXINGTON,NC,27292
10004194,EASTERN CORRECTIONAL INSTITUTION,YES,FULL,2821 N.C. HIGHWAY 903,MAURY,NC,28554
10001769,FOOTHILLS CORRECTIONAL INSTITUTION,YES,FULL,5150 WESTERN AVE.,MORGANTON,NC,28655
10004159,FORSYTH CORRECTIONAL CENTER,YES,FULL,307 CRAFT DRIVE,WINSTON-SALEM,NC,27105
10004157,FRANKLIN CORRECTIONAL CENTER,YES,PARTIAL,5918 NC HIGHWAY 39 SOUTH,BUNN,NC,27508
10004210,GASTON CORRECTIONAL CENTER,YES,PARTIAL,520 JUSTICE COURT,DALLAS,NC,28034
10001747,GRANVILLE CORRECTIONAL INSTITUTION,YES,FULL,1001 VEAZEY ROAD,BUTNER,NC,27509
10001775,GREENE CORRECTIONAL INSTITUTION,YES,FULL,2699 HWY. 903,MAURY,NC,28554
10001025,HARNETT CORRECTIONAL INSTITUTION,YES,PARTIAL,1210 E. MCNEILL STREET,LILLINGTON,NC,27546
10004193,HYDE CORRECTIONAL INSTITUTION,YES,FULL,620 PRISON ROAD,FAIRFIELD,NC,27826
10004190,JOHNSTON CORRECTIONAL INSTITUTION,NO,NONE,510 TURNAGE ROAD,SMITHFIELD,NC,27577
10004197,LINCOLN CORRECTIONAL CENTER,NO,NONE,464 ROPER DRIVE,LINCOLNTON,NC,28092
10001027,LUMBERTON CORRECTIONAL INSTITUTION,YES,PARTIAL,75 LEGEND ROAD,LUMBERTON,NC,28359
10001770,MARION CORRECTIONAL INSTITUTION,YES,FULL,355 OLD GLENWOOD ROAD,MARION,NC,28752
10001776,MAURY CORRECTIONAL INSTITUTION,YES,FULL,2568 MOORE ROUSE ROAD,HOOKERTON,NC,28538
10001754,MOUNTAIN VIEW CORRECTIONAL INSTITUTION,YES,FULL,545 AMITY PARK ROAD,SPRUCE PINE,NC,28777
10004173,NC CORRECTIONAL INSTITUTION FOR WOMEN,YES,PARTIAL,1034 BRAGG STREET,RALEIGH,NC,27610
10001763,NASH CORRECTIONAL INSTITUTION,YES,FULL,2869 US 64 ALT.,NASHVILLE,NC,27856
10001782,NEUSE CORRECTIONAL INSTITUTION,YES,FULL,701 STEVENS MILL RD,GOLDSBORO,NC,27533
10001801,NEW HANOVER CORRECTIONAL CENTER,YES,FULL,330 DIVISION DRIVE,WILMINGTON,NC,28401
10004165,ORANGE CORRECTIONAL CENTER,YES,FULL,2110 CLARENCE WALTERS ROAD,HILLSBOROUGH,NC,27278
10001788,PAMLICO CORRECTIONAL INSTITUTION,YES,FULL,601 NORTH THIRD STREET,BAYBORO,NC,28515
10001752,PASQUOTANK CORRECTIONAL INSTITUTION,YES,FULL,527 COMMERCE DRIVE,ELIZABETH CITY,NC,27906
10004226,PENDER CORRECTIONAL INSTITUTION,YES,PARTIAL,906 PENDERLEA HIGHWAY,BURGAW,NC,28425
10004183,PIEDMONT CORRECTIONAL INSTITUTION,YES,PARTIAL,1245 CAMP ROAD,SALISBURY,NC,28147
10001771,RANDOLPH CORRECTIONAL CENTER,YES,PARTIAL,2760 US 220 BUSINESS,ASHEBORO,NC,27203
10004219,RICHMOND CORRECTIONAL INSTITUTION,YES,PARTIAL,1573 MCDONALD CHURCH ROAD,HOFFMAN,NC,28347
10002633,ROANOKE RIVER CORRECTIONAL INSTITUTION,YES,PARTIAL,2787 CALEDONIA DRIVE,TILLERY,NC,27882
10001778,RUTHERFORD CORRECTIONAL CENTER,YES,PARTIAL,549 LEDBETTER ROAD,SPINDALE,NC,28160
10004213,SAMPSON CORRECTIONAL INSTITUTION,YES,FULL,700 NORTHWEST BLVD US 421 NORTH,CLINTON,NC,28328
10001777,SANFORD CORRECTIONAL CENTER,YES,FULL,417 ADVANCEMENT CENTER RD.,SANFORD,NC,27330
10001793,SCOTLAND CORRECTIONAL INSTITUTION,YES,FULL,22385 MCGIRTS BRIDGE ROAD,LAURINBURG,NC,28353
10001784,SOUTHERN CORRECTIONAL INSTITUTION,YES,FULL,272 GLEN ROAD,TROY,NC,27371
10001799,TABOR CORRECTIONAL INSTITUTION,YES,FULL,4600 SWAMP FOX HIGHWAY,WEST TABOR CITY,NC,28463
10001021,TYRRELL PRISON WORK FARM,NO,NONE,SNELL ROAD,COLUMBIA,NC,27925
10004146,WARREN CORRECTIONAL INSTITUTION,YES,PARTIAL,379 COLLINS ROAD,MANSON,NC,27553
10006217,WESTERN CORRECTIONAL CENTER FOR WOMEN,YES,FULL,55 LAKE EDEN ROAD,BLACK MOUNTAIN,NC,28711
10004153,WILKES CORRECTIONAL CENTER,YES,PARTIAL,404 STATESVILLE ROAD,NORTH WILKESBORO,NC,28659
10004174,WAKE CORRECTIONAL CENTER,YES,FULL,1000 ROCK QUARRY ROAD,RALEIGH,NC,27610
10004139,COMMUNITY CORRECTIONS CENTER - LINCOLN,YES,FULL,2720 W VAN DORN ST,LINCOLN,NE,68522
10004126,COMMUNITY CORRECTIONS CENTER - OMAHA,YES,FULL,2320 AVENUE J,OMAHA,NE,68110
10001738,NEBRASKA CORRECTIONAL CENTER FOR WOMEN,YES,FULL,1107 RECHARGE RD.,YORK,NE,68467
10004127,NEBRASKA CORRECTIONAL YOUTH FACILITY,YES,FULL,2610 N 20TH ST. E.,OMAHA,NE,68110
10001739,NEBRASKA STATE PENITENTIARY,YES,FULL,4201 S 14TH ST.,LINCOLN,NE,68502
10004125,OMAHA CORRECTIONAL CENTER,YES,FULL,2323 AVENUE J.,OMAHA,NE,68110
NA,RECEPTION AND TREATMENT CENTER,YES,FULL,3218 WEST VAN DORN STREET,LINCOLN,NE,68542
10001742,TECUMSEH STATE CORRECTIONAL INSTITUTION,YES,FULL,2725 HWY 50.,TECUMSEH,NE,68450
10001743,WORK ETHIC CAMP,YES,FULL,2309 N. HWY 83,MCCOOK,NE,69001
10001298,COFFEE CREEK CORRECTIONAL FACILITY,YES,FULL,24499 SW GRAHAMS FERRY ROAD,WILSONVILLE,OR,97070
10002958,COLUMBIA RIVER CORRECTIONAL INSTITUTION,YES,FULL,9111 NE SUN​DERLAND AVENUE,PORTLAND,OR,97211
10000257,DEER RIDGE CORRECTIONAL INSTITUTION,YES,PARTIAL,3920 EAST ASHWOOD ROAD,MADRAS,OR,97741
10001294,EASTERN OREGON CORRECTIONAL INSTITUTION,YES,FULL,2500 WESTGATE,PENDLETON,OR,97801
10001302,OREGON STATE CORRECTIONAL INSTITUTION,YES,FULL,3405 DEER PARK DRIVE SE,SALEM,OR,97310
10002968,OREGON STATE PENITENTIARY,YES,FULL,2605 STATE STREET,SALEM,OR,97310
10002968,OREGON STATE PENITENTIARY MINIMUM,NO,NONE,2605 STATE STREET,SALEM,OR,97310
10001306,POWDER RIVER CORRECTIONAL FACILITY,YES,FULL,3600 13TH STREET,BAKER CITY,OR,97814
10002971,SANTIAM CORRECTIONAL INSTITUTION,YES,FULL,4005 AUMSVILLE HWY SE,SALEM,OR,97317
10002957,SOUTH FORK FOREST CAMP,YES,FULL,48300 WILSON RIVER HWY,TILLAMOOK,OR,97141
10001310,SNAKE RIVER CORRECTIONAL INSTITUTION,YES,FULL,777 STANTON BLVD.,ONTARIO,OR,97914
10001295,TWO RIVERS CORRECTIONAL INSTITUTION,YES,FULL,82911 BEACH ACCESS ROAD,UMATILLA,OR,97882
10006966,WARNER CREEK CORRECTIONAL FACILITY,YES,FULL,20654 RABBIT HILL ROAD,LAKEVIEW,OR,97630
10002987,CARLIN CONSERVATION CAMP,YES,FULL,124 SUZIE CREEK RD,CARLIN,NV,89822
20000040,CASA GRANDE TRANSITIONAL HOUSING ,YES,FULL,3955 W RUSSELL RD,LAS VEGAS,NV,89118
10003799,ELY STATE PRISON ,YES,FULL,4569 N STYATE RT 490,ELY,NV,89301
10000261,FLORENCE MCCLURE WOMEN’S CORRECTIONAL CENTER ,YES,FULL,4370 SMILEY ROAD,LAS VEGAS,NV,89115
10003004,HIGH DESERT STATE PRISON ,YES,FULL,22010 COLD CREEK COLD,INDIAN SPRINGS,NV,89070
10003012,JEAN CONSERVATION CAMP,YES,FULL,3 PRISON ROAD,JEAN,NV,89019
10002991,LOVELOCK CORRECTIONAL CENTER ,YES,FULL,1200 PRISON ROAD,LOVELOCK,NV,89419
10002996,NORTHERN NEVADA CORRECTIONAL CENTER ,YES,FULL,1721 E SNYDER,CARSON CITY,NV,89701
10000260,NORTHERN NEVADA TRANSITIONAL HOUSING ,YES,FULL,225 SUNSHINE LANE,RENO,NV,89502
10003002,PIOCHE CONSERVATION CAMP,YES,FULL,1 HARDTIMES ROAD,PIOCHE,NV,89043
10003005,SOUTHERN DESERT CORRECTIONAL CENTER ,YES,FULL,20825 COLD CREEK ROAD,INDIAN SPRING,NV,89070
10002997,STEWART CONSERVATION CAMP,YES,FULL,1721 E SNYDER,CARSON CITY,NV,89701
10003006,THREE LAKES VALLEY CONSERVATION CAMP,YES,FULL,20825 COLD CREEK ROAD,INDIAN SPRING,NV,89070
10002998,TONOPAH CONSERVATION CAMP,YES,FULL,HC 76,TONOPAH,NV,89049
10000258,WELLS CONSERVATION CAMP,YES,FULL,HC 67-50,WELLS,NV,89835
10000826,AVENAL STATE PRISON (ASP),YES,FULL,#1 KINGS WAY,AVENAL,CA,93204
10001530,CALIFORNIA CORRECTIONAL INSTITUTION (CCI),NO,NONE,24900 HIGHWAY 202,TEHACHAPI,CA,93561
10000799,"CALIFORNIA HEALTH CARE FACILITY, STOCKTON (CHCF)",YES,FULL,7707 AUSTIN ROAD,STOCKTON,CA,95215
10000836,CALIFORNIA INSTITUTION FOR MEN (CIM),YES,FULL,14901 CENTRAL AVENUE,CHINO,CA,91710
10000785,CALIFORNIA MEDICAL FACILITY (CMF),YES,PARTIAL,1600 CALIFORNIA DR.,VACAVILLE,CA,95696
10000857,CALIFORNIA REHABILITATION CENTER (CRC),YES,FULL,5TH STREET & WESTERN,NORCO,CA,92860
10000824,"CALIFORNIA STATE PRISON, CORCORAN (COR)",YES,FULL,4001 KING AVENUE,CORCORAN,CA,93212
10002353,"CALIFORNIA STATE PRISON, LOS ANGELES COUNTY (LAC)",YES,FULL,44750 60TH STREET WEST,LANCASTER,CA,93536
10002322,"CALIFORNIA STATE PRISON, SACRAMENTO (SAC)",YES,FULL,100 PRISON ROAD,REPRESA,CA,95671
10002323,"CALIFORNIA STATE PRISON, SOLANO (SOL)",YES,PARTIAL,2100 PEABODY ROAD,VACAVILLE,CA,95696
10000825,CALIFORNIA SUBSTANCE ABUSE TREATMENT FACILITY (SATF),YES,FULL,900 QUEBEC AVENUE,CORCORAN,CA,93212
10002345,CALIFORNIA’S MEN’S COLONY (CMC) ,NO,NONE,HIGHWAY 1,SAN LUIS OBISPO,CA,93409
10002347,CALIPATRIA STATE PRISON (CAL),YES,FULL,7018 BLAIR ROAD,CALIPATRIA,CA,92233
10002348,CENTINELA STATE PRISON (CEN),YES ,FULL,2302 BROWN ROAD,IMPERIAL,CA,92251
10000801,CENTRAL CALIFORNIA WOMEN’S FACILITY (CCWF),YES,FULL,23370 ROAD 22,CHOWCHILLA,CA,93610
10002346,CHUCKAWALLA VALLEY STATE PRISON (CVSP),YES,FULL,19025 WILEY’S WELL RD.,BLYTHE,CA,92225
10000817,CORRECTIONAL TRAINING FACILITY (CTF),YES,PARTIAL,HIGHWAY 101,NORTH SOLEDAD,CA,93960
10000780,FOLSOM STATE PRISON (FSP),YES,FULL,300 PRISON ROAD,REPRESA,CA,95671
10002310,HIGH DESERT STATE PRISON (HDSP),YES ,FULL,475-750 RICE CANYON RD.,SUSANVILLE,CA,96127
10000861,IRONWOOD STATE PRISON (ISP),YES,FULL,19025 WILEY’S WELL RD.,BLYTHE,CA,92225
10000844,KERN VALLEY STATE PRISON (KVSP),YES,FULL,3000 WEST CECIL AVENUE,DELANO,CA,93216
10000782,MULE CREEK STATE PRISON (MCSP),YES,FULL,4001 HIGHWAY 104,IONE,CA,95640
10000841,NORTH KERN STATE PRISON (NKSP),YES,FULL,2737 WEST CECIL AVENUE,DELANO,CA,93215
10002309,PELICAN BAY STATE PRISON (PBSP),YES,PARTIAL,5905 LAKE EARL DRIVE,CRESCENT CITY,CA,95531
10000810,PLEASANT VALLEY STATE PRISON (PVSP),YES,FULL,24863 WEST JAYNE AVENUE,COALINGA,CA,93210
10000869,R.J. DONOVAN CORRECTIONAL FACILITY AT ROCK MOUNTAIN (RJD),YES,PARTIAL,480 ALTA ROAD,SAN DIEGO,CA,92179
10000821,SALINAS VALLEY STATE PRISON (SVSP),YES,FULL,31625 HIGHWAY 101,SOLEDAD,CA,93960
10000790,SAN QUENTIN STATE PRISON (SQRC),YES,PARTIAL,100 MAIN STREET,SAN QUENTIN,CA,94964
10001522,SIERRA CONSERVATION CENTER (SCC),YES,PARTIAL,5100 O’BYRNES FERRY ROAD,JAMESTOWN,CA,95327
10000847,WASCO STATE PRISON (WSP),YES,FULL,701 SCOFIELD AVENUE,WASCO,CA,93280
10002341,CALIFORNIA INSTITUTION FOR WOMEN (CIW),YES,FULL,16756 CHINO-CORONA ROAD,CORONA,CA,92880
10000802,VALLEY STATE PRISON (VSP),YES,FULL,21633 AVENUE 24,CHOWCHILLA,CA,93610
